$$SOE
2460154.500000000, A.D. 2023-Jul-29 00:00:00.0000, -2.118776223505639E+08, -3.277407207683345E+08, 9.725493350743578E+07,
2460161.500000000, A.D. 2023-Aug-05 00:00:00.0000, -2.033700350549209E+08, -3.345077406370389E+08, 9.741452952564339E+07,
2460168.500000000, A.D. 2023-Aug-12 00:00:00.0000, -1.947121257903683E+08, -3.410274490101905E+08, 9.750209885993096E+07,
2460175.500000000, A.D. 2023-Aug-19 00:00:00.0000, -1.859115820670089E+08, -3.472972753900869E+08, 9.751821965960935E+07,
2460182.500000000, A.D. 2023-Aug-26 00:00:00.0000, -1.769760554300324E+08, -3.533148702439620E+08, 9.746350992891169E+07,
2460189.500000000, A.D. 2023-Sep-02 00:00:00.0000, -1.679131565996454E+08, -3.590780989563859E+08, 9.733862559848952E+07,
2460196.500000000, A.D. 2023-Sep-09 00:00:00.0000, -1.587304510011272E+08, -3.645850359363860E+08, 9.714425865215626E+07,
2460203.500000000, A.D. 2023-Sep-16 00:00:00.0000, -1.494354544977906E+08, -3.698339589539160E+08, 9.688113528951830E+07,
2460210.500000000, A.D. 2023-Sep-23 00:00:00.0000, -1.400356288916920E+08, -3.748233434336137E+08, 9.655001411012247E+07,
2460217.500000000, A.D. 2023-Sep-30 00:00:00.0000, -1.305383775130702E+08, -3.795518555278953E+08, 9.615168444751690E+07,
2460224.500000000, A.D. 2023-Oct-07 00:00:00.0000, -1.209510432334283E+08, -3.840183445227842E+08, 9.568696502405779E+07,
2460231.500000000, A.D. 2023-Oct-14 00:00:00.0000, -1.112809078431329E+08, -3.882218378995793E+08, 9.515670255950855E+07,
2460238.500000000, A.D. 2023-Oct-21 00:00:00.0000, -1.015351895468438E+08, -3.921615374600544E+08, 9.456177016821253E+07,
2460245.500000000, A.D. 2023-Oct-28 00:00:00.0000, -9.172103998455343E+07, -3.958368142638931E+08, 9.390306586018625E+07,
2460252.500000000, A.D. 2023-Nov-04 00:00:00.0000, -8.184554201210879E+07, -3.992472031551859E+08, 9.318151119717038E+07,
2460259.500000000, A.D. 2023-Nov-11 00:00:00.0000, -7.191570804766715E+07, -4.023923974827756E+08, 9.239805003717940E+07,
2460266.500000000, A.D. 2023-Nov-18 00:00:00.0000, -6.193847874876998E+07, -4.052722440826224E+08, 9.155364734068765E+07,
2460273.500000000, A.D. 2023-Nov-25 00:00:00.0000, -5.192072193149079E+07, -4.078867385029550E+08, 9.064928803206515E+07,
2460280.500000000, A.D. 2023-Dec-02 00:00:00.0000, -4.186923168823347E+07, -4.102360204866428E+08, 8.968597591146307E+07,
2460287.500000000, A.D. 2023-Dec-09 00:00:00.0000, -3.179072761212311E+07, -4.123203697726712E+08, 8.866473260412249E+07,
2460294.500000000, A.D. 2023-Dec-16 00:00:00.0000, -2.169185382724870E+07, -4.141402022063921E+08, 8.758659652059059E+07,
2460301.500000000, A.D. 2023-Dec-23 00:00:00.0000, -1.157917746388552E+07, -4.156960654724353E+08, 8.645262185059600E+07,
2460308.500000000, A.D. 2023-Dec-30 00:00:00.0000, -1.459187907105869E+06, -4.169886334011233E+08, 8.526387779735465E+07,
2460315.500000000, A.D. 2024-Jan-06 00:00:00.0000, 8.661701420617033E+06, -4.180187012077793E+08, 8.402144801950829E+07,
2460322.500000000, A.D. 2024-Jan-13 00:00:00.0000, 1.877715192787386E+07, -4.187871834708594E+08, 8.272642983975588E+07,
2460329.500000000, A.D. 2024-Jan-20 00:00:00.0000, 2.888090060889139E+07, -4.192951117647647E+08, 8.137993335855968E+07,
2460336.500000000, A.D. 2024-Jan-27 00:00:00.0000, 3.896676066560375E+07, -4.195436312951730E+08, 7.998308071092087E+07,
2460343.500000000, A.D. 2024-Feb-03 00:00:00.0000, 4.902862157826212E+07, -4.195339974846176E+08, 7.853700542637433E+07,
2460350.500000000, A.D. 2024-Feb-10 00:00:00.0000, 5.906044891066602E+07, -4.192675727980773E+08, 7.704285184125927E+07,
2460357.500000000, A.D. 2024-Feb-17 00:00:00.0000, 6.905628399654467E+07, -4.187458237986911E+08, 7.550177454930243E+07,
2460364.500000000, A.D. 2024-Feb-24 00:00:00.0000, 7.901024355019498E+07, -4.179703184158155E+08, 7.391493788618650E+07,
2460371.500000000, A.D. 2024-Mar-02 00:00:00.0000, 8.891651923782873E+07, -4.169427234539943E+08, 7.228351544025826E+07,
2460378.500000000, A.D. 2024-Mar-09 00:00:00.0000, 9.876937735596353E+07, -4.156648024013431E+08, 7.060868956906793E+07,
2460385.500000000, A.D. 2024-Mar-16 00:00:00.0000, 1.085631590202893E+08, -4.141384133361907E+08, 6.889165089958242E+07,
2460392.500000000, A.D. 2024-Mar-23 00:00:00.0000, 1.182922807697739E+08, -4.123655058202513E+08, 6.713359791082080E+07,
2460399.500000000, A.D. 2024-Mar-30 00:00:00.0000, 1.279512333524195E+08, -4.103481168032889E+08, 6.533573680131952E+07,
2460406.500000000, A.D. 2024-Apr-06 00:00:00.0000, 1.375345789553113E+08, -4.080883689047974E+08, 6.349928134172428E+07,
2460413.500000000, A.D. 2024-Apr-13 00:00:00.0000, 1.470369504363315E+08, -4.055884702347442E+08, 6.162545245431149E+07,
2460420.500000000, A.D. 2024-Apr-20 00:00:00.0000, 1.564530516106146E+08, -4.028507130757670E+08, 5.971547782480627E+07,
2460427.500000000, A.D. 2024-Apr-27 00:00:00.0000, 1.657776570790128E+08, -3.998774719861753E+08, 5.777059163864210E+07,
2460434.500000000, A.D. 2024-May-04 00:00:00.0000, 1.750056116906922E+08, -3.966712020239753E+08, 5.579203437468785E+07,
2460441.500000000, A.D. 2024-May-11 00:00:00.0000, 1.841318298825021E+08, -3.932344371901709E+08, 5.378105262483363E+07,
2460448.500000000, A.D. 2024-May-18 00:00:00.0000, 1.931512949812724E+08, -3.895697890660269E+08, 5.173889893231381E+07,
2460455.500000000, A.D. 2024-May-25 00:00:00.0000, 2.020590584977907E+08, -3.856799456474326E+08, 4.966683164455804E+07,
2460462.500000000, A.D. 2024-Jun-01 00:00:00.0000, 2.108502394766172E+08, -3.815676704296654E+08, 4.756611476913372E+07,
2460469.500000000, A.D. 2024-Jun-08 00:00:00.0000, 2.195200241529479E+08, -3.772358017619791E+08, 4.543801780742097E+07,
2460476.500000000, A.D. 2024-Jun-15 00:00:00.0000, 2.280636663208953E+08, -3.726872519246924E+08, 4.328381557345386E+07,
2460483.500000000, A.D. 2024-Jun-22 00:00:00.0000, 2.364764874118449E+08, -3.679250047521548E+08, 4.110478818572843E+07,
2460490.500000000, A.D. 2024-Jun-29 00:00:00.0000, 2.447538741637779E+08, -3.629521136198821E+08, 3.890222127683863E+07,
2460497.500000000, A.D. 2024-Jul-06 00:00:00.0000, 2.528912765290972E+08, -3.577717022628251E+08, 3.667740597506385E+07,
2460504.500000000, A.D. 2024-Jul-13 00:00:00.0000, 2.608842077738979E+08, -3.523869655973334E+08, 3.443163870888750E+07,
2460511.500000000, A.D. 2024-Jul-20 00:00:00.0000, 2.687282447865392E+08, -3.468011693960763E+08, 3.216622110965239E+07,
2460518.500000000, A.D. 2024-Jul-27 00:00:00.0000, 2.764190279421934E+08, -3.410176497730238E+08, 2.988245999309973E+07,
2460525.500000000, A.D. 2024-Aug-03 00:00:00.0000, 2.839522607987022E+08, -3.350398128503610E+08, 2.758166736293247E+07,
2460532.500000000, A.D. 2024-Aug-10 00:00:00.0000, 2.913237097920608E+08, -3.288711346082548E+08, 2.526516041961080E+07,
2460539.500000000, A.D. 2024-Aug-17 00:00:00.0000, 2.985292039816473E+08, -3.225151608920376E+08, 2.293426157062763E+07,
2460546.500000000, A.D. 2024-Aug-24 00:00:00.0000, 3.055646348759853E+08, -3.159755075952231E+08, 2.059029843669818E+07,
2460553.500000000, A.D. 2024-Aug-31 00:00:00.0000, 3.124259564579843E+08, -3.092558610758380E+08, 1.823460383705132E+07,
2460560.500000000, A.D. 2024-Sep-07 00:00:00.0000, 3.191091857794869E+08, -3.023599786761202E+08, 1.586851572962002E+07,
2460567.500000000, A.D. 2024-Sep-14 00:00:00.0000, 3.256104042155760E+08, -2.952916883478796E+08, 1.349337717897905E+07,
2460574.500000000, A.D. 2024-Sep-21 00:00:00.0000, 3.319257573540512E+08, -2.880548869706579E+08, 1.111053657103138E+07,
2460581.500000000, A.D. 2024-Sep-28 00:00:00.0000, 3.380514530345371E+08, -2.806535405887513E+08, 8.721347854083851E+06,
2460588.500000000, A.D. 2024-Oct-05 00:00:00.0000, 3.439837612087932E+08, -2.730916865616211E+08, 6.327170468386367E+06,
2460595.500000000, A.D. 2024-Oct-12 00:00:00.0000, 3.497190152652403E+08, -2.653734346443311E+08, 3.929369239604831E+06,
2460602.500000000, A.D. 2024-Oct-19 00:00:00.0000, 3.552536130707256E+08, -2.575029672666898E+08, 1.529314373681739E+06,
2460609.500000000, A.D. 2024-Oct-26 00:00:00.0000, 3.605840177004680E+08, -2.494845398103834E+08, -8.716185105336457E+05,
2460616.500000000, A.D. 2024-Nov-02 00:00:00.0000, 3.657067581161565E+08, -2.413224810300997E+08, -3.272048347786576E+06,
2460623.500000000, A.D. 2024-Nov-09 00:00:00.0000, 3.706184298905977E+08, -2.330211935950165E+08, -5.670588600441054E+06,
2460630.500000000, A.D. 2024-Nov-16 00:00:00.0000, 3.753156960058976E+08, -2.245851547464324E+08, -8.065847243613362E+06,
2460637.500000000, A.D. 2024-Nov-23 00:00:00.0000, 3.797952877731370E+08, -2.160189171160959E+08, -1.045642677098133E+07,
2460644.500000000, A.D. 2024-Nov-30 00:00:00.0000, 3.840540060839949E+08, -2.073271097412946E+08, -1.284092424491689E+07,
2460651.500000000, A.D. 2024-Dec-07 00:00:00.0000, 3.880887234186468E+08, -1.985144388494854E+08, -1.521793139588445E+07,
2460658.500000000, A.D. 2024-Dec-14 00:00:00.0000, 3.918963859292342E+08, -1.895856871845991E+08, -1.758603460866565E+07,
2460665.500000000, A.D. 2024-Dec-21 00:00:00.0000, 3.954740132874736E+08, -1.805457131152355E+08, -1.994381468518692E+07,
2460672.500000000, A.D. 2024-Dec-28 00:00:00.0000, 3.988186982716434E+08, -1.713994524905327E+08, -2.228984680874963E+07,
2460679.500000000, A.D. 2025-Jan-04 00:00:00.0000, 4.019276086917390E+08, -1.621519208629892E+08, -2.462270075503003E+07,
2460686.500000000, A.D. 2025-Jan-11 00:00:00.0000, 4.047979898347515E+08, -1.528082144134213E+08, -2.694094104838301E+07,
2460693.500000000, A.D. 2025-Jan-18 00:00:00.0000, 4.074271665167791E+08, -1.433735104920737E+08, -2.924312705568746E+07,
2460700.500000000, A.D. 2025-Jan-25 00:00:00.0000, 4.098125449889194E+08, -1.338530682452489E+08, -3.152781308015237E+07,
2460707.500000000, A.D. 2025-Feb-01 00:00:00.0000, 4.119516148899714E+08, -1.242522293519874E+08, -3.379354847627418E+07,
2460714.500000000, A.D. 2025-Feb-08 00:00:00.0000, 4.138419513080837E+08, -1.145764188452736E+08, -3.603887779112649E+07,
2460721.500000000, A.D. 2025-Feb-15 00:00:00.0000, 4.154812169840107E+08, -1.048311460318625E+08, -3.826234093781777E+07,
$$EOE